#aV2022  6  1  0  0  0.00000000     288 DD+AD WGS84 FIT  NGA
## 2212 259200.00000000   300.00000000 59731 0.0000000000000
+   32     1  2  3  4  5  6  7  8  9 10 11 12 13 14 15 16 17
+         18 19 20 21 22 23 24 25 26 27 28 29 30 31 32  0  0
+          0  0  0  0  0  0  0  0  0  0  0  0  0  0  0  0  0
+          0  0  0  0  0  0  0  0  0  0  0  0  0  0  0  0  0
+          0  0  0  0  0  0  0  0  0  0  0  0  0  0  0  0  0
++         2  2  2  2  2  2  2  2  2  2  2  2  2  2  2  2  2
++         2  2  2  2  2  2  2  2  2  2  2  2  2  2  2  0  0
++         0  0  0  0  0  0  0  0  0  0  0  0  0  0  0  0  0
++         0  0  0  0  0  0  0  0  0  0  0  0  0  0  0  0  0
++         0  0  0  0  0  0  0  0  0  0  0  0  0  0  0  0  0
%c cc cc ccc ccc cccc cccc cccc cccc ccccc ccccc ccccc ccccc
%c cc cc ccc ccc cccc cccc cccc cccc ccccc ccccc ccccc ccccc
%f  0.0000000  0.000000000  0.00000000000  0.000000000000000
%f  0.0000000  0.000000000  0.00000000000  0.000000000000000
%i    0    0    0    0      0      0      0      0         0
%i    0    0    0    0      0      0      0      0         0
/*      NGA, ST. LOUIS,MO.                                  
/*   EPHEMERIS COMPUTED FROM 2 DAYS OF DATA                 
/*   EPOCHA v7 SMOOTHER                                     
/*   G2139 IERS2010 SATIGS SATAPC                           
*  2022  6  1  1 45  0.00000000
P  1 -13838.696626  21508.267441   6139.808873    350.789756                    
V  1   1280.537577  -8443.517028  31292.985978     -0.080709                    
P  2  15940.705952  -3313.412291 -20367.072916   -653.023322                    
V  2  -7792.420500  26187.036807  -9896.735259      0.002304                    
P  3 -17711.390608  12653.789940 -15248.988563   -263.894497                    
V  3 -19254.196394    627.290329  23164.911103     -0.126626                    
P  4  -8195.182511  13916.013312 -21059.506374   -161.725809                    
V  4 -16044.072528 -21460.015200  -8017.715527      0.038392                    
P  5  26039.144808  -5402.555175   1456.728275    -83.894360                    
V  5   2457.938348   2305.862103 -31595.273060     -0.013721                    
P  6   9348.849149  13284.372428 -20935.404975    325.508971                    
V  6 -11126.435087  24247.318598  10463.342247      0.151010                    
P  7  -3532.254675  24608.201597   9009.839428    322.165380                    
V  7  -7257.274235   8912.634472 -28962.951460     -0.001755                    
P  8 -14565.541484   5658.674272  21477.206069    -70.298453                    
V  8 -16712.251519 -21604.936560  -5285.482835     -0.015523                    
P  9   1841.915488  20955.258159 -16260.310256   -332.226470                    
V  9 -14311.517638 -14897.384901 -20931.576924      0.031531                    
P 10 -12761.385866 -12143.892271  20113.904982   -436.863828                    
V 10  24784.539584  -3990.299532  13128.172611     -0.155330                    
P 11  16594.208763  -1172.036037 -20703.705389    -18.784491                    
V 11 -10744.439865  23998.437018  -9990.058989      0.035534                    
P 12  21450.095680  -9708.574865 -12452.935815   -224.177196                    
V 12  15503.338371   1270.318199  26389.284233     -0.058478                    
P 13  17772.106653   4850.703765  19045.177481    321.754909                    
V 13  10940.934631  21872.257616 -15484.783070      0.068477                    
P 14  10970.895014  13419.088280  20148.308604   -110.407046                    
V 14 -25398.504115   3291.351319  11543.699221     -0.011441                    
P 15  13728.615800  -8191.599544  20826.786158    -56.792254                    
V 15  18966.422355  19911.772965  -4271.327844      0.030048                    
P 16 -26636.821045  -1174.143332  -3076.335640   -505.532288                    
V 16   3440.858637  -2238.831231 -31334.496584     -0.029802                    
P 17  13350.018776  22853.172420   2266.076822    619.551902                    
V 17  -3189.899788   -701.910479  32008.932186      0.045762                    
P 18   4880.294411 -24722.506486   8203.581854    154.777265                    
V 18   6428.980893  -8573.772283 -29735.899173     -0.104932                    
P 19  16994.547524  19538.710830  -6658.783316    164.759807                    
V 19   2460.773995   7912.683431  30490.112549      0.050042                    
P 20  24621.486944    142.475076  -9648.868516    513.522420                    
V 20 -10985.205770   6505.667203 -28152.969073     -0.010267                    
P 21 -16335.214703  13698.662201  16027.625872    161.261703                    
V 21   4025.370429 -19187.207899  22034.862877      0.000750                    
P 22 -17946.909622 -17793.747151  -8038.785194    268.365933                    
V 22  -3584.704934 -10433.698546  29392.687468      0.062207                    
P 23   -520.432860 -15089.544077  21836.696142    -25.410412                    
V 23  27440.795342  -3999.938457  -2210.277806     -0.022662                    
P 24  14397.005155 -19410.787409  10232.135417    230.282940                    
V 24   -862.809665  14063.980360  27513.519422     -0.076943                    
P 25   7646.319688 -15498.757941 -20383.850192    331.807739                    
V 25  25261.675386  -2195.725890  11573.568807      0.047180                    
P 26 -22517.261491  -5749.075768 -13224.624287    209.426987                    
V 26  15858.237465  -5487.914047 -24470.038723      0.025023                    
P 27 -19647.488567  -7592.829157  16199.469418    210.770848                    
V 27 -11397.203954 -17451.895466 -21332.866638      0.045353                    
P 28  18798.573019  10392.265193  15979.899902    347.264971                    
V 28 -19373.133447   2391.844987  22167.597071     -0.076449                    
P 29   -397.809732 -20890.334094 -16409.898917   -519.495893                    
V 29  12488.831307  16600.880848 -21571.145114     -0.038358                    
P 30   3913.213734  20645.387458  16181.542009   -529.921602                    
V 30 -10587.273953  17804.523429 -20515.876993     -0.012806                    
P 31 -11706.242143 -10775.944968 -21334.103217   -179.952855                    
V 31  11737.049627 -24194.715508   6273.779674     -0.015547                    
P 32 -16304.955629 -21096.033648    -70.076994   -140.321701                    
V 32   2024.248696  -1892.447006  31564.091590     -0.090576                    
EOF
